SCD 1                   
1 22490U 93009B   23277.13486073  .00000798  00000+0  17092-3 0  9996
2 22490  24.9685 177.2678 0042835 138.8619 338.1266 14.45021376618534
TECHSAT 1B (GO-32)      
1 25397U 98043D   23277.48923140  .00000259  00000+0  13309-3 0  9996
2 25397  98.8822 235.9517 0001670 137.5362 222.5945 14.23918365311105
SCD 2                   
1 25504U 98060A   23276.67304431  .00000737  00000+0  15785-3 0  9992
2 25504  24.9963  37.8378 0017254 134.3152 248.6795 14.44513002317337
LANDSAT 7               
1 25682U 99020A   23277.58418978  .00000827  00000+0  18050-3 0  9997
2 25682  97.9199 311.1533 0001711  87.6087  30.1353 14.60255304301742
DLR-TUBSAT              
1 25757U 99029B   23277.43981870  .00000372  00000+0  10430-3 0  9998
2 25757  98.5463 231.2860 0015464 111.4978 248.7867 14.51721445290148
TERRA                   
1 25994U 99068A   23277.42088285  .00000969  00000+0  21446-3 0  9992
2 25994  98.0838 343.0539 0003158  89.6223 325.9142 14.59347706265714
MAROC-TUBSAT            
1 27004U 01056D   23276.94861851  .00000000  00000+0  51854-4 0  9993
2 27004  99.6979  64.0506 0020216 152.5704 321.6044 13.70184354 90982
AQUA                    
1 27424U 02022A   23277.45681035  .00002176  00000+0  47968-3 0  9990
2 27424  98.2959 221.5521 0001291 108.1634   2.2427 14.58386473139286
IRS-P6 (RESOURCESAT-1)  
1 28051U 03046A   23277.42421619  .00000455  00000+0  17287-3 0  9990
2 28051  98.3481 338.8636 0059396  47.5181   9.3999 14.34443574 38960
SHIYAN 1 (SY-1)         
1 28220U 04012A   23277.54816135  .00009869  00000+0  66135-3 0  9990
2 28220  97.9876 290.1259 0010395 169.7549 190.3891 15.07053978 61462
AURA                    
1 28376U 04026A   23276.84622326  .00002039  00000+0  45578-3 0  9996
2 28376  98.2183 219.0938 0001510  94.0200 266.1171 14.57787502 22210
IRS-P5 (CARTOSAT-1)     
1 28649U 05017A   23276.77365815  .00002569  00000+0  30223-3 0  9998
2 28649  97.6543 325.4444 0002853  93.9281 266.2261 14.85677612996995
SINAH 1                 
1 28893U 05043D   23277.29090438  .00001069  00000+0  22101-3 0  9992
2 28893  98.1659  38.5862 0016046 125.4310 234.8392 14.62266463956444
EROS B                  
1 29079U 06014A   23277.42253628  .00035128  00000+0  13845-2 0  9992
2 29079  97.3382  34.1389 0016194  12.5544 347.6094 15.25378061968544
RESURS-DK 1             
1 29228U 06021A   23277.43475253  .00003906  00000+0  27825-3 0  9990
2 29228  69.9377 359.3010 0003020   8.5462 351.5751 15.05443551953688
ARIRANG-2 (KOMPSAT-2)   
1 29268U 06031A   23277.44986494  .00000644  00000+0  13359-3 0  9993
2 29268  97.8910 132.1675 0014076 324.5843 153.3539 14.63230710917198
LAPAN-TUBSAT            
1 29709U 07001A   23277.46022126  .00001347  00000+0  17092-3 0  9995
2 29709  98.0337 245.4837 0013267 149.4786 210.7202 14.83322420904758
CARTOSAT-2 (IRS-P7)     
1 29710U 07001B   23277.39120009  .00098289  00000+0  89022-3 0  9991
2 29710  97.9039  66.4276 0076055 161.9911 198.4069 15.63985401909300
HAIYANG-1B              
1 31113U 07010A   23276.91280521  .00000208  00000+0  95669-4 0  9993
2 31113  98.2977 285.7496 0012523 247.3972 112.5888 14.30475925859455
COSMO-SKYMED 1          
1 31598U 07023A   23277.46097901  .00001231  00000+0  16121-3 0  9995
2 31598  97.8885  99.3616 0001229  97.7114 262.4239 14.82154073883170
TERRASAR-X              
1 31698U 07026A   23275.50901513  .00003084  00000+0  15002-3 0  9990
2 31698  97.4461 281.3761 0001840  81.8343 278.3100 15.19146782903128
WORLDVIEW-1 (WV-1)      
1 32060U 07041A   23276.90783491  .00014015  00000+0  56971-3 0  9995
2 32060  97.3926  35.0312 0002768 241.9000 118.1958 15.24656478892529
YAOGAN 3                
1 32289U 07055A   23277.43131616  .00003835  00000+0  47330-3 0  9995
2 32289  97.9144 300.1859 0001909  85.4624 274.6808 14.83439664859245
COSMO-SKYMED 2          
1 32376U 07059A   23277.42722405  .00001236  00000+0  16180-3 0  9999
2 32376  97.8886  99.3288 0001442  86.8519 273.2859 14.82167315855918
RADARSAT-2              
1 32382U 07061A   23277.51881013  .00000105  00000+0  57671-4 0  9995
2 32382  98.5804 282.5953 0001166  89.8171 270.3145 14.29980479825051
CARTOSAT-2A             
1 32783U 08021A   23277.44268379  .00001734  00000+0  24311-3 0  9996
2 32783  97.9044 336.0696 0013460  74.5341 285.7356 14.78701049833066
HUANJING 1A (HJ-1A)     
1 33320U 08041A   23277.39575348  .00001719  00000+0  24013-3 0  9999
2 33320  97.6421 292.2615 0021961 126.4718 233.8522 14.78701658812404
HUANJING 1B (HJ-1B)     
1 33321U 08041B   23277.54961451  .00001820  00000+0  24813-3 0  9992
2 33321  97.6423 296.8366 0039172 171.9451 188.2399 14.79305745812427
GEOEYE 1                
1 33331U 08042A   23277.54273704  .00001253  00000+0  24617-3 0  9993
2 33331  98.0764 349.7762 0005987 238.0796 121.9825 14.64345265805754
THEOS                   
1 33396U 08049A   23277.47900934  .00000136  00000+0  84357-4 0  9992
2 33396  98.6932 343.3957 0001074  86.3409 273.7890 14.20045245777946
COSMO-SKYMED 3          
1 33412U 08054A   23277.47622655  .00006536  00000+0  60421-3 0  9993
2 33412  97.8871 107.5026 0016725 353.6454   6.4552 14.94809878808902
YAOGAN 4                
1 33446U 08061A   23277.38039340  .00002973  00000+0  41135-3 0  9993
2 33446  97.8559 209.6813 0016908  43.0967 317.1564 14.78686247799596
GOSAT (IBUKI)           
1 33492U 09002A   23276.87221590  .00003137  00000+0  56104-3 0  9998
2 33492  98.0201  28.4924 0001129  98.4721 261.6612 14.67570198787112
YAOGAN 6                
1 34839U 09021A   23277.45845747  .00019677  00000+0  51970-3 0  9998
2 34839  97.1394 244.5049 0023419  39.4301 320.8644 15.38194513803872
DEIMOS-1                
1 35681U 09041A   23277.42189769  .00001156  00000+0  18846-3 0  9996
2 35681  97.6810 108.2462 0002635 112.2411 247.9078 14.72711581761511
DUBAISAT-1              
1 35682U 09041B   23277.35761075  .00002546  00000+0  42788-3 0  9991
2 35682  97.8724  56.7299 0011158   2.5037 357.6224 14.70430497759889
OCEANSAT-2              
1 35931U 09051A   23277.46767890  .00000289  00000+0  22457-3 0  9995
2 35931  98.3023 345.5949 0017702 137.0289 223.2264 13.99385278741316
WORLDVIEW-2 (WV-2)      
1 35946U 09055A   23277.47500781  .00000383  00000+0  14236-3 0  9991
2 35946  98.4418 350.3041 0001074  18.7278 341.3949 14.37500973734011
SMOS                    
1 36036U 09059A   23276.92583293  .00000660  00000+0  22461-3 0  9991
2 36036  98.4440 102.6056 0001113 102.7040 257.4273 14.39718329731399
YAOGAN 7                
1 36110U 09069A   23276.66420393  .00001031  00000+0  15790-3 0  9997
2 36110  98.1396 146.2056 0025285 336.7500  23.2563 14.75687517743869
TANDEM-X                
1 36605U 10030A   23275.57488253  .00002863  00000+0  13950-3 0  9994
2 36605  97.4465 281.4408 0001879  93.4919 266.6530 15.19146484736551
CARTOSAT-2B             
1 36795U 10035A   23277.41189358  .00001729  00000+0  24233-3 0  9994
2 36795  97.8987 335.8609 0013862 146.3656 213.8438 14.78715598714102
YAOGAN 10               
1 36834U 10038A   23277.45113948  .00001386  00000+0  18086-3 0  9995
2 36834  97.9647 290.9775 0001699  85.1873  51.0004 14.82125256710963
COSMO-SKYMED 4          
1 37216U 10060A   23277.43989083  .00001174  00000+0  15410-3 0  9997
2 37216  97.8885  99.3409 0001503  90.3233 269.8152 14.82139394698469
RESOURCESAT-2           
1 37387U 11015A   23277.41979781  .00000301  00000+0  15645-3 0  9990
2 37387  98.6117 344.8877 0005189 131.2384 228.9241 14.21676032646509
HAIYANG-2A              
1 37781U 11043A   23277.45303921  .00000004  00000+0  46993-4 0  9991
2 37781  99.3247 280.2035 0001472  67.4610 292.6697 13.78752194610959
RASAT                   
1 37791U 11044D   23277.48709670  .00001297  00000+0  24613-3 0  9996
2 37791  98.0865   8.0301 0022799  76.0051 344.2256 14.65739955648531
SRMSAT                  
1 37841U 11058D   23277.33833766  .00000652  00000+0  21258-3 0  9991
2 37841  19.9717 270.0641 0011978 150.5985 239.7150 14.10953582618468
YAOGAN 13               
1 37941U 11072A   23277.45411851  .00022800  00000+0  76135-3 0  9991
2 37941  97.6925 243.8119 0002926 118.2428 241.9108 15.31045136657043
PLEIADES 1A             
1 38012U 11076F   23277.48841924  .00000854  00000+0  19337-3 0  9992
2 38012  98.1908 350.8236 0001212  81.6966 289.1344 14.58574382628172
ZIYUAN 1-02C (ZY 1-02C) 
1 38038U 11079A   23277.47880605  .00000890  00000+0  31910-3 0  9992
2 38038  98.5323 343.7703 0006903  21.9777 349.0173 14.36370404617511
ZIYUAN 3-1 (ZY 3-1)     
1 38046U 12001A   23277.43213859  .00015126  00000+0  60574-3 0  9990
2 38046  97.2843 340.7486 0002326 308.1211  51.9817 15.25140525651729
ARIRANG-3 (KOMPSAT-3)   
1 38338U 12025B   23277.43823677  .00001376  00000+0  28275-3 0  9999
2 38338  98.2283 219.0508 0009744 329.7882  30.2756 14.62170787607219
KANOPUS-V 1             
1 38707U 12039A   23277.35290791  .00019158  00000+0  59394-3 0  9993
2 38707  97.4779 204.7670 0002106  89.3544 270.7940 15.33463850621688
EXACTVIEW-1 (ADS-1B)    
1 38709U 12039C   23276.86549033  .00000296  00000+0  14793-3 0  9993
2 38709  98.9649 358.8068 0011782 133.3035 226.9127 14.24291932582123
SPOT 6                  
1 38755U 12047A   23277.43342669  .00000811  00000+0  18423-3 0  9990
2 38755  98.1785 343.1410 0001104  83.8174 276.3151 14.58558043589247
PLEIADES 1B             
1 39019U 12068A   23277.45173861  .00000850  00000+0  19256-3 0  9993
2 39019  98.1858 350.6965 0001211  92.0372 268.0966 14.58586825577014
GOKTURK 2               
1 39030U 12073A   23277.36417318  .00001074  00000+0  17310-3 0  9998
2 39030  97.7856 144.0602 0000976  66.9451 293.1860 14.73369793579113
LANDSAT 8               
1 39084U 13008A   23277.45026482  .00000823  00000+0  19262-3 0  9993
2 39084  98.2162 345.9863 0001233  94.5364 265.5975 14.57117483566021
SARAL                   
1 39086U 13009A   23277.43100543  .00000278  00000+0  11927-3 0  9999
2 39086  98.5494 101.1524 0001573 359.0411   1.0769 14.32269152554327
